{"type": "FeatureCollection", "features": [ {"type": "Feature", "properties": {"norad_id": 34001, "name": "COSMOS 2251 DEB", "group": "cosmos-2251-debris", "lat": 9.481945549742944, "lon": 108.82493342657814, "alt_km": 782.3048860874451, "timestamp": "2025-12-07T07:31:36.691249+00:00", "meta": {"OBJECT_NAME": "COSMOS 2251 DEB", "OBJECT_ID": "1993-036GL", "EPOCH": "2025-12-06T22:38:58.126848", "MEAN_MOTION": 14.37086376, "ECCENTRICITY": 0.00196875, "INCLINATION": 74.0383, "RA_OF_ASC_NODE": 292.2447, "ARG_OF_PERICENTER": 14.5977, "MEAN_ANOMALY": 42.469, "EPHEMERIS_TYPE": 0, "CLASSIFICATION_TYPE": "U", "NORAD_CAT_ID": 34001, "ELEMENT_SET_NO": 999, "REV_AT_EPOCH": 88063, "BSTAR": 0.00037481497, "MEAN_MOTION_DOT": 1.089e-05, "MEAN_MOTION_DDOT": 0}, "tle": {"line1": "1 34001U 93036GL  25340.94372832  .00001089  00000+0  37481-3 0  9994", "line2": "2 34001  74.0383 292.2447 0019687  14.5977  42.4690 14.37086376880634"}}, "geometry": {"type": "Point", "coordinates": [108.82493342657814, 9.481945549742944]}}, {"type": "Feature", "properties": {"norad_id": 34003, "name": "COSMOS 2251 DEB", "group": "cosmos-2251-debris", "lat": 8.592749656079771, "lon": -63.251626616004664, "alt_km": 791.5874401600931, "timestamp": "2025-12-07T07:31:36.691259+00:00", "meta": {"OBJECT_NAME": "COSMOS 2251 DEB", "OBJECT_ID": "1993-036GN", "EPOCH": "2025-12-06T22:48:44.721504", "MEAN_MOTION": 13.84099508, "ECCENTRICITY": 0.02738921, "INCLINATION": 74.0787, "RA_OF_ASC_NODE": 294.8872, "ARG_OF_PERICENTER": 48.2566, "MEAN_ANOMALY": 314.1626, "EPHEMERIS_TYPE": 0, "CLASSIFICATION_TYPE": "U", "NORAD_CAT_ID": 34003, "ELEMENT_SET_NO": 999, "REV_AT_EPOCH": 84345, "BSTAR": 0.0030737359, "MEAN_MOTION_DOT": 4.555e-05, "MEAN_MOTION_DDOT": 0}, "tle": {"line1": "1 34003U 93036GN  25340.95051761  .00004555  00000+0  30737-2 0  9999", "line2": "2 34003  74.0787 294.8872 0273892  48.2566 314.1626 13.84099508843451"}}, "geometry": {"type": "Point", "coordinates": [-63.251626616004664, 8.592749656079771]}}, {"type": "Feature", "properties": {"norad_id": 34004, "name": "COSMOS 2251 DEB", "group": "cosmos-2251-debris", "lat": -3.921268167191895, "lon": 144.40850674832754, "alt_km": 753.1618301944482, "timestamp": "2025-12-07T07:31:36.691269+00:00", "meta": {"OBJECT_NAME": "COSMOS 2251 DEB", "OBJECT_ID": "1993-036GP", "EPOCH": "2025-12-06T09:08:13.509024", "MEAN_MOTION": 14.48910835, "ECCENTRICITY": 0.00332553, "INCLINATION": 74.0358, "RA_OF_ASC_NODE": 325.0323, "ARG_OF_PERICENTER": 338.1291, "MEAN_ANOMALY": 21.8447, "EPHEMERIS_TYPE": 0, "CLASSIFICATION_TYPE": "U", "NORAD_CAT_ID": 34004, "ELEMENT_SET_NO": 999, "REV_AT_EPOCH": 87938, "BSTAR": 0.0024975664, "MEAN_MOTION_DOT": 9.506e-05, "MEAN_MOTION_DDOT": 0}, "tle": {"line1": "1 34004U 93036GP  25340.38071191  .00009506  00000+0  24976-2 0  9995", "line2": "2 34004  74.0358 325.0323 0033255 338.1291  21.8447 14.48910835879387"}}, "geometry": {"type": "Point", "coordinates": [144.40850674832754, -3.921268167191895]}}, {"type": "Feature", "properties": {"norad_id": 34005, "name": "COSMOS 2251 DEB", "group": "cosmos-2251-debris", "lat": -73.70702522867904, "lon": 121.8441274992777, "alt_km": 760.9113524535442, "timestamp": "2025-12-07T07:31:36.691280+00:00", "meta": {"OBJECT_NAME": "COSMOS 2251 DEB", "OBJECT_ID": "1993-036GQ", "EPOCH": "2025-12-06T18:55:20.796960", "MEAN_MOTION": 14.40297909, "ECCENTRICITY": 0.0020617, "INCLINATION": 74.045, "RA_OF_ASC_NODE": 224.6422, "ARG_OF_PERICENTER": 343.899, "MEAN_ANOMALY": 81.0089, "EPHEMERIS_TYPE": 0, "CLASSIFICATION_TYPE": "U", "NORAD_CAT_ID": 34005, "ELEMENT_SET_NO": 999, "REV_AT_EPOCH": 88293, "BSTAR": 0.00021466968, "MEAN_MOTION_DOT": 6.55e-06, "MEAN_MOTION_DDOT": 0}, "tle": {"line1": "1 34005U 93036GQ  25340.78843515  .00000655  00000+0  21467-3 0  9996", "line2": "2 34005  74.0450 224.6422 0020617 343.8990  81.0089 14.40297909882939"}}, "geometry": {"type": "Point", "coordinates": [121.8441274992777, -73.70702522867904]}}, {"type": "Feature", "properties": {"norad_id": 34006, "name": "COSMOS 2251 DEB", "group": "cosmos-2251-debris", "lat": -15.11797908393672, "lon": -21.362716654645688, "alt_km": 589.1256673700927, "timestamp": "2025-12-07T07:31:36.691290+00:00", "meta": {"OBJECT_NAME": "COSMOS 2251 DEB", "OBJECT_ID": "1993-036GR", "EPOCH": "2025-12-06T23:10:46.485120", "MEAN_MOTION": 14.94132445, "ECCENTRICITY": 0.00118934, "INCLINATION": 74.0532, "RA_OF_ASC_NODE": 154.9063, "ARG_OF_PERICENTER": 108.083, "MEAN_ANOMALY": 17.3836, "EPHEMERIS_TYPE": 0, "CLASSIFICATION_TYPE": "U", "NORAD_CAT_ID": 34006, "ELEMENT_SET_NO": 999, "REV_AT_EPOCH": 88582, "BSTAR": 0.004809689, "MEAN_MOTION_DOT": 0.00051878, "MEAN_MOTION_DDOT": 0}, "tle": {"line1": "1 34006U 93036GR  25340.96581580  .00051878  00000+0  48097-2 0  9998", "line2": "2 34006  74.0532 154.9063 0011893 108.0830  17.3836 14.94132445885822"}}, "geometry": {"type": "Point", "coordinates": [-21.362716654645688, -15.11797908393672]}}, {"type": "Feature", "properties": {"norad_id": 34007, "name": "COSMOS 2251 DEB", "group": "cosmos-2251-debris", "lat": -7.7059518022339955, "lon": -4.879867815070282, "alt_km": 706.2509526930089, "timestamp": "2025-12-07T07:31:36.691300+00:00", "meta": {"OBJECT_NAME": "COSMOS 2251 DEB", "OBJECT_ID": "1993-036GS", "EPOCH": "2025-12-06T11:53:35.088864", "MEAN_MOTION": 14.64721791, "ECCENTRICITY": 0.00445765, "INCLINATION": 74.0194, "RA_OF_ASC_NODE": 358.9162, "ARG_OF_PERICENTER": 135.8494, "MEAN_ANOMALY": 224.6247, "EPHEMERIS_TYPE": 0, "CLASSIFICATION_TYPE": "U", "NORAD_CAT_ID": 34007, "ELEMENT_SET_NO": 999, "REV_AT_EPOCH": 88988, "BSTAR": 0.0012293927, "MEAN_MOTION_DOT": 6.618e-05, "MEAN_MOTION_DDOT": 0}, "tle": {"line1": "1 34007U 93036GS  25340.49554501  .00006618  00000+0  12294-2 0  9992", "line2": "2 34007  74.0194 358.9162 0044576 135.8494 224.6247 14.64721791889885"}}, "geometry": {"type": "Point", "coordinates": [-4.879867815070282, -7.7059518022339955]}}, {"type": "Feature", "properties": {"norad_id": 34008, "name": "COSMOS 2251 DEB", "group": "cosmos-2251-debris", "lat": -44.453635521571194, "lon": -35.87658196151777, "alt_km": 771.7408479832102, "timestamp": "2025-12-07T07:31:36.691310+00:00", "meta": {"OBJECT_NAME": "COSMOS 2251 DEB", "OBJECT_ID": "1993-036GT", "EPOCH": "2025-12-06T19:09:16.911360", "MEAN_MOTION": 14.33139905, "ECCENTRICITY": 0.00241043, "INCLINATION": 74.0341, "RA_OF_ASC_NODE": 341.3777, "ARG_OF_PERICENTER": 337.7332, "MEAN_ANOMALY": 197.1131, "EPHEMERIS_TYPE": 0, "CLASSIFICATION_TYPE": "U", "NORAD_CAT_ID": 34008, "ELEMENT_SET_NO": 999, "REV_AT_EPOCH": 87879, "BSTAR": 0.00022517166, "MEAN_MOTION_DOT": 5.94e-06, "MEAN_MOTION_DDOT": 0}, "tle": {"line1": "1 34008U 93036GT  25340.79811240  .00000594  00000+0  22517-3 0  9999", "line2": "2 34008  74.0341 341.3777 0024104 337.7332 197.1131 14.33139905878797"}}, "geometry": {"type": "Point", "coordinates": [-35.87658196151777, -44.453635521571194]}}, {"type": "Feature", "properties": {"norad_id": 34009, "name": "COSMOS 2251 DEB", "group": "cosmos-2251-debris", "lat": -11.99218097986677, "lon": -16.63198306859038, "alt_km": 778.7352628686303, "timestamp": "2025-12-07T07:31:36.691324+00:00", "meta": {"OBJECT_NAME": "COSMOS 2251 DEB", "OBJECT_ID": "1993-036GU", "EPOCH": "2025-12-06T18:59:04.403616", "MEAN_MOTION": 14.33215145, "ECCENTRICITY": 0.00263357, "INCLINATION": 74.0371, "RA_OF_ASC_NODE": 347.8083, "ARG_OF_PERICENTER": 59.3515, "MEAN_ANOMALY": 113.2749, "EPHEMERIS_TYPE": 0, "CLASSIFICATION_TYPE": "U", "NORAD_CAT_ID": 34009, "ELEMENT_SET_NO": 999, "REV_AT_EPOCH": 87860, "BSTAR": 0.00024575887, "MEAN_MOTION_DOT": 6.52e-06, "MEAN_MOTION_DDOT": 0}, "tle": {"line1": "1 34009U 93036GU  25340.79102319  .00000652  00000+0  24576-3 0  9992", "line2": "2 34009  74.0371 347.8083 0026335  59.3515 113.2749 14.33215145878605"}}, "geometry": {"type": "Point", "coordinates": [-16.63198306859038, -11.99218097986677]}}, {"type": "Feature", "properties": {"norad_id": 34010, "name": "COSMOS 2251 DEB", "group": "cosmos-2251-debris", "lat": 6.394887533663033, "lon": -63.484037434433034, "alt_km": 514.0128353747668, "timestamp": "2025-12-07T07:31:36.691335+00:00", "meta": {"OBJECT_NAME": "COSMOS 2251 DEB", "OBJECT_ID": "1993-036GV", "EPOCH": "2025-12-06T22:00:08.825184", "MEAN_MOTION": 15.17164737, "ECCENTRICITY": 0.00045583, "INCLINATION": 73.9996, "RA_OF_ASC_NODE": 295.5027, "ARG_OF_PERICENTER": 59.7073, "MEAN_ANOMALY": 300.4573, "EPHEMERIS_TYPE": 0, "CLASSIFICATION_TYPE": "U", "NORAD_CAT_ID": 34010, "ELEMENT_SET_NO": 999, "REV_AT_EPOCH": 89197, "BSTAR": 0.0061426669, "MEAN_MOTION_DOT": 0.00124104, "MEAN_MOTION_DDOT": 0}, "tle": {"line1": "1 34010U 93036GV  25340.91676881  .00124104  00000+0  61427-2 0  9992", "line2": "2 34010  73.9996 295.5027 0004558  59.7073 300.4573 15.17164737891974"}}, "geometry": {"type": "Point", "coordinates": [-63.484037434433034, 6.394887533663033]}}, {"type": "Feature", "properties": {"norad_id": 34011, "name": "COSMOS 2251 DEB", "group": "cosmos-2251-debris", "lat": -6.897967196297028, "lon": 162.20645703851676, "alt_km": 769.2550476907618, "timestamp": "2025-12-07T07:31:36.691345+00:00", "meta": {"OBJECT_NAME": "COSMOS 2251 DEB", "OBJECT_ID": "1993-036GW", "EPOCH": "2025-12-06T00:41:21.098688", "MEAN_MOTION": 14.41719901, "ECCENTRICITY": 0.00352462, "INCLINATION": 74.0147, "RA_OF_ASC_NODE": 342.6021, "ARG_OF_PERICENTER": 68.4372, "MEAN_ANOMALY": 292.0534, "EPHEMERIS_TYPE": 0, "CLASSIFICATION_TYPE": "U", "NORAD_CAT_ID": 34011, "ELEMENT_SET_NO": 999, "REV_AT_EPOCH": 87819, "BSTAR": 0.0013246525, "MEAN_MOTION_DOT": 4.329e-05, "MEAN_MOTION_DDOT": 0}, "tle": {"line1": "1 34011U 93036GW  25340.02871642  .00004329  00000+0  13247-2 0  9990", "line2": "2 34011  74.0147 342.6021 0035246  68.4372 292.0534 14.41719901878197"}}, "geometry": {"type": "Point", "coordinates": [162.20645703851676, -6.897967196297028]}}]}